facility_id,name,ward,address,lat,lng,facility_type,phone,website,map_url,nearest_station,walk_minutes,notes
1410051014918,ベネッセ　日吉保育園,港北区,〒223-8526 神奈川県横浜市港北区日吉４丁目１−１ 1F 慶應義塾日吉キャンパス,35.5520511,139.6472816,"establishment,point_of_interest,school",045-560-6506,https://hoiku.benesse-style-care.co.jp/facilities/area_kanagawa/yokohama/h-hiyoshi/,https://maps.google.com/?cid=3348325136545956794,日吉駅,2,
1410051024594,ベネッセ　新横浜保育園,港北区,〒222-0033 神奈川県横浜市港北区新横浜２丁目１１−１１ スケートセンタ 2階,35.507934,139.612343,"establishment,point_of_interest,school",045-476-5741,https://hoiku.benesse-style-care.co.jp/facilities/area_kanagawa/yokohama/h-cccshinyokohama/,https://maps.google.com/?cid=9156083472015116886,新横浜駅,6,
1410051024974,アスクみのわ保育園,港北区,〒223-0051 神奈川県横浜市港北区箕輪町２丁目２−２９ 1F,35.5470576,139.6440535,"establishment,point_of_interest,school",045-566-8606,https://list.nihonhoiku.co.jp/nursery/detail/minowa/?utm_source=google&utm_medium=map&utm_campaign=gbp,https://maps.google.com/?cid=133913106740443876,日吉駅,12,
1410051017135,岩崎学園新横浜保育園,港北区,〒222-0033 神奈川県横浜市港北区新横浜２丁目４−１０,35.509036,139.616174,"establishment,point_of_interest,school",045-474-2365,http://hoiku.iwasaki.ac.jp/kosodate/isyh/index.html,https://maps.google.com/?cid=14058616145991846520,新横浜駅,1,
1410051026516,明日葉保育園綱島園,港北区,〒223-0052 神奈川県横浜市港北区綱島東３丁目１−４,35.5378822,139.6402475,"establishment,point_of_interest,school",045-717-7714,https://www.ashita-ba.jp/hoiku/tsunashima/,https://maps.google.com/?cid=3553907803523963060,新綱島駅,5,
1410051027886,横浜りとるぱんぷきんず(保育所部分),港北区,〒223-0062 神奈川県横浜市港北区日吉本町４丁目１０−４９,35.5457737,139.6348366,"establishment,point_of_interest,school",045-560-5645,https://www.seikoukai.or.jp/facilities/yokohama/,https://maps.google.com/?cid=259097597118571709,綱島駅,18,
1410051026003,にじいろ保育園日吉,港北区,〒223-0051 神奈川県横浜市港北区箕輪町２丁目７−４２ プラウドシティ日吉 ﾚｼﾞﾃﾞﾝｽⅡｿｺﾗ日吉,35.5464641,139.6447317,"establishment,point_of_interest,school",045-534-5261,https://www.like-kd.co.jp/establishment/nijiiro/HPhiyoshi?utm_source=google&utm_medium=maps&utm_campaign=hiyoshi,https://maps.google.com/?cid=4204802428231622655,日吉駅,12,
1410051017259,新羽どろんこ保育園,港北区,〒223-0057 神奈川県横浜市港北区新羽町２１８５−１,35.5264206,139.6090586,"establishment,point_of_interest,school",045-544-5033,https://www.doronko.jp/facilities/doronko-nippa/?utm_source=GBP&utm_medium=click&utm_campaign=page_doronko-nippa,https://maps.google.com/?cid=16939733256837428911,大倉山駅,35,
1410051026631,ぶれすと新横浜ほいくえん,港北区,〒222-0034 神奈川県横浜市港北区岸根町３７５−１,35.5027115,139.6129645,"establishment,point_of_interest,school",045-718-6107,https://hoikuen.brest.co.jp/shinyoko/,https://maps.google.com/?cid=5559648245052289358,新横浜駅,13,
1410051015758,パレット保育園・高田,港北区,〒223-0065 神奈川県横浜市港北区高田東４丁目２２−３８,35.5492024,139.6204353,"establishment,point_of_interest,school",045-544-1149,https://p-hoiku.com/info/72-2/%E5%90%84%E5%9C%92%E6%83%85%E5%A0%B1_%E9%AB%98%E7%94%B0/,https://maps.google.com/?cid=7626428599501457926,綱島駅,28,
1410051015220,尚花愛児園,港北区,"尚花愛児園, 川崎町田線, 大曽根三丁目, 港北区, 横浜市, 神奈川県, 231-0017, 日本",35.535369,139.6299657,"establishment,point_of_interest,school",045-542-0233,https://www.shoka-aijien.or.jp/,https://maps.google.com/?cid=5102384291662947456,綱島駅,7,
1410051019289,ポピンズナーサリースクール小机,港北区,〒222-0036 神奈川県横浜市港北区小机町２５８０−１,35.507964,139.600842,"establishment,point_of_interest,school",045-470-6621,https://www.poppins.co.jp/educare/room-search/kodukue/?utm_source=gmap&utm_medium=room&utm_campaign=202210,https://maps.google.com/?cid=3413805028578412476,小机駅,1,
1410051027134,まなびの森　ヴィラ日吉こども園,港北区,〒223-0051 神奈川県横浜市港北区箕輪町１丁目２−１ １,35.5509782,139.6470934,"establishment,point_of_interest,school",,http://kodomonomori.co.jp/vh/,https://maps.google.com/?cid=8919426728818398577,日吉駅,4,
1410051015600,おおくらやまえきまえのぞみ保育園,港北区,〒222-0037 神奈川県横浜市港北区大倉山３丁目５−１６,35.520741,139.6297087,"establishment,point_of_interest,school",045-717-6660,https://shkb.org/ookurayamaekimae/,https://maps.google.com/?cid=6366156800715038215,大倉山駅,2,
1410051017119,アスクバイリンガル保育園ゆめみらい,港北区,〒223-0052 神奈川県横浜市港北区綱島東４丁目１−５,35.5427877,139.6407579,"establishment,point_of_interest,school",045-540-3030,https://list.nihonhoiku.co.jp/nursery/detail/yumemirai/?utm_source=google&utm_medium=map&utm_campaign=gbp,https://maps.google.com/?cid=13478205624683504219,新綱島駅,12,
1410051024586,キッズパートナー小机,港北区,〒222-0036 神奈川県横浜市港北区小机町２１９０ 番,35.509617,139.6007613,"establishment,point_of_interest,school",045-473-5361,https://www.care-partner.com/place/kodukue/,https://maps.google.com/?cid=15103266619319498805,小机駅,2,
1410051025476,光の園第二保育園,港北区,〒222-0011 神奈川県横浜市港北区菊名６丁目１５−１４,35.5144609,139.6308335,"establishment,point_of_interest,school",045-430-5099,https://www.aunty-i.com/hikarinosono.html#nursery2,https://maps.google.com/?cid=3645874141753733604,菊名駅,7,
1410051026623,Gakkenほいくえん綱島,港北区,〒223-0052 神奈川県横浜市港北区綱島東３丁目５−５７−１,35.539698,139.6425836,"establishment,point_of_interest,school",045-642-3956,https://nursery.cocofump.co.jp/nursery/tsunashima/,https://maps.google.com/?cid=1678755130596991003,新綱島駅,10,
1410051015709,光の園保育園,港北区,〒222-0021 神奈川県横浜市港北区篠原北２丁目４−９ パールエイト菊名,35.510017,139.629633,"establishment,point_of_interest,school",045-423-6755,http://www.aunty-i.com/sp/hikarinosono.html,https://maps.google.com/?cid=12402856245868844744,菊名駅,1,
1410051024230,光の園アンティー保育園,港北区,〒222-0011 神奈川県横浜市港北区菊名１丁目６−１４,35.4983114,139.6319311,"establishment,point_of_interest,school",045-716-8326,http://aunty-i.com/,https://maps.google.com/?cid=17435862794583574322,妙蓮寺駅,2,
1410051019008,横浜市港北保育園,港北区,"横浜市港北保育園, 旧綱島街道, 白幡町, 港北区, 横浜市, 神奈川県, 231-0017, 日本",35.496176,139.631452,"establishment,point_of_interest,school",045-421-8575,https://www.city.yokohama.lg.jp/kohoku/kosodate_kyoiku/hoiku/hoikujo/kohoku.html,https://maps.google.com/?cid=1592050161556769438,妙蓮寺駅,5,
1410051028561,オハナ新羽保育園,港北区,〒223-0057 神奈川県横浜市港北区新羽町１６８５−２,35.528451,139.611968,"establishment,point_of_interest,school",045-532-0810,http://kiyukai.or.jp/ohana_nippa/,https://maps.google.com/?cid=2676927977747901871,大倉山駅,30,
1410051025633,パレット保育園・妙蓮寺,港北区,〒222-0023 神奈川県横浜市港北区仲手原１丁目１８−１３,35.4956041,139.6341672,"establishment,point_of_interest,school",045-710-0149,https://p-hoiku.com/info/72-2/%E5%90%84%E5%9C%92%E6%83%85%E5%A0%B1_%E5%A6%99%E8%93%AE%E5%AF%BA/,https://maps.google.com/?cid=8170443963505173908,妙蓮寺駅,6,
1410051017127,岩崎学園新横浜第二保育園,港北区,〒222-0033 神奈川県横浜市港北区新横浜３丁目２２−１９,35.5123982,139.6182743,"establishment,point_of_interest,school",045-474-5630,https://hoiku.iwasaki.ac.jp/kosodate/isyh2/index.html,https://maps.google.com/?cid=15892592637556186859,新横浜駅,6,
1410051019651,大豆戸どろんこ保育園,港北区,〒222-0032 神奈川県横浜市港北区大豆戸町９４３,35.51669260000001,139.6238065,"establishment,point_of_interest,school",045-710-0906,https://www.doronko.jp/facilities/doronko-mamedo/?utm_source=GBP&utm_medium=click&utm_campaign=page_doronko-mamedo,https://maps.google.com/?cid=14182774340831929979,大倉山駅,12,
1410051019024,横浜市南日吉保育園,港北区,"横浜市南日吉保育園, 荏田綱島線, 日吉本町四丁目, 港北区, 横浜市, 神奈川県, 231-0017, 日本",35.545476,139.634729,"establishment,point_of_interest,school",045-561-6560,,https://maps.google.com/?cid=8558392897798525783,綱島駅,16,
1410051018232,Gakkenほいくえん日吉本町,港北区,〒223-0062 神奈川県横浜市港北区日吉本町３丁目２３−１５,35.5477261,139.6384009,"establishment,point_of_interest,school",045-560-2331,http://nursery.cocofump.co.jp/nursery/hiyoshihonchou/,https://maps.google.com/?cid=14439652975982416963,日吉駅,17,
1410051018240,日吉夢保育園,港北区,〒223-0062 神奈川県横浜市港北区日吉本町５丁目７４−１,35.5504539,139.6268125,"establishment,point_of_interest,school",045-562-4125,https://www.yumekoubou.or.jp/hoikuen/hiyoshiyume/,https://maps.google.com/?cid=9974789176088082531,綱島駅,29,
1410051019644,第二尚花愛児園,港北区,〒223-0053 神奈川県横浜市港北区綱島西１丁目１６−２７,35.5388901,139.6320937,"establishment,point_of_interest,school",045-542-2004,http://dai2-shoka-aijien.jp/,https://maps.google.com/?cid=14592604322847215381,綱島駅,8,
1410051024693,クレシュ新横浜,港北区,〒222-0033 神奈川県横浜市港北区新横浜３丁目２−４ プレシア新横浜 3F,35.5109871,139.6213378,"establishment,point_of_interest,school",045-473-5252,http://www.creche-shinyokohama.net/,https://maps.google.com/?cid=18139995068442836747,新横浜駅,6,
1410051027878,ヒューマンアカデミー大倉山保育園,港北区,〒222-0002 神奈川県横浜市港北区師岡町２９８,35.5187655,139.6354863,"establishment,point_of_interest,school",045-546-3166,https://hoiku.athuman.com/access/#tab_access_okurayama,https://maps.google.com/?cid=18167514633964426168,大倉山駅,10,
1410051017242,アイグラン保育園高田東,港北区,〒223-0065 神奈川県横浜市港北区高田東４丁目２３−１７,35.5484765,139.6195632,"establishment,point_of_interest,school",045-859-9302,https://ai-takadahigashi.hoiku-en.net/,https://maps.google.com/?cid=7751099625884830647,綱島駅,28,
1410051026581,しんよしだこども園（保育所部分）,港北区,〒223-0058 神奈川県横浜市港北区新吉田東６丁目１７−３,35.536528,139.621422,"establishment,point_of_interest,school",045-549-5821,http://www.shinyoshida-hoikuen.or.jp/,https://maps.google.com/?cid=2202488721305287478,綱島駅,19,
1410051026466,明日葉保育園大倉山園,港北区,〒222-0037 神奈川県横浜市港北区大倉山１丁目１５−２１,35.5204863,139.6308617,"establishment,point_of_interest,school",045-642-3561,https://www.ashita-ba.jp/hoiku/okurayama/,https://maps.google.com/?cid=3074873590614070413,大倉山駅,3,
1410051027142,スターチャイルド≪綱島ナーサリー≫,港北区,〒223-0053 神奈川県横浜市港北区綱島西５丁目３−１５,35.5444884,139.6268246,"establishment,point_of_interest,school",045-533-2201,https://www.starchild.jp/nursery/tsunashima,https://maps.google.com/?cid=5500051003582131613,綱島駅,18,
1410051027829,小学館アカデミーひよし保育園,港北区,〒223-0051 神奈川県横浜市港北区箕輪町２丁目２−１２ アリアソワン・プレミアム日吉 101,35.5473856,139.6446911,"establishment,point_of_interest,school",045-560-1710,https://hoiku.shopro.co.jp/hoiku/about/nursery/hiyoshi.html,https://maps.google.com/?cid=8681950115849938136,日吉駅,10,
1410051023992,ベネッセ　綱島台保育園,港北区,〒223-0054 神奈川県横浜市港北区綱島台１７−２３,35.54296679999999,139.632252,"establishment,point_of_interest,school",045-534-0351,https://hoiku.benesse-style-care.co.jp/facilities/area_kanagawa/yokohama/h-tsunashimadai/,https://maps.google.com/?cid=5475732957261791322,綱島駅,14,
1410051015691,パレット保育園・綱島,港北区,〒223-0053 神奈川県横浜市港北区綱島西１丁目２−９,35.537881,139.6354742,"establishment,point_of_interest,school",045-540-0301,https://p-hoiku.com/info/72-2/%E5%90%84%E5%9C%92%E6%83%85%E5%A0%B1_%E3%81%9F%E3%81%BE%E3%83%97%E3%83%A9%E3%83%BC%E3%82%B6/,https://maps.google.com/?cid=13836536789297204594,綱島駅,1,
1410051027977,さくらんぼ保育園,港北区,"さくらんぼ保育園, 日吉中央通り, 日吉本町一丁目, 港北区, 横浜市, 神奈川県, 231-0017, 日本",35.553934,139.645418,"establishment,point_of_interest,school",045-564-5518,https://sakuranbo-hoikuen.com/,https://maps.google.com/?cid=13604554684744408955,日吉駅,2,
1410051026011,まなびの森　菊名こども園,港北区,〒222-0013 神奈川県横浜市港北区錦が丘１９−１８,35.5078074,139.6301351,"establishment,point_of_interest,school",045-947-2020,http://kodomonomori.co.jp/ki/,https://maps.google.com/?cid=9816246843588808212,菊名駅,4,
1410051018216,アスク日吉本町開善保育園,港北区,"アスク日吉本町開善保育園, 赤門坂, 日吉本町二丁目, 港北区, 横浜市, 神奈川県, 231-0017, 日本",35.5515575,139.6356741,"establishment,point_of_interest,school",045-562-0895,https://list.nihonhoiku.co.jp/nursery/detail/hiyoshihoncho/?utm_source=google&utm_medium=map&utm_campaign=gbp,https://maps.google.com/?cid=1283279496948274257,日吉駅,19,
1410051018257,ペガサス新横浜保育園,港北区,"ペガサス新横浜保育園, 新横浜中央通り, 新横浜三丁目, 新横浜二丁目, 港北区, 横浜市, 神奈川県, 231-0017, 日本",35.5140227,139.6204427,"establishment,point_of_interest,school",045-476-0768,http://www.yamayuri-kai.jp/shinyokohamaindex.html,https://maps.google.com/?cid=3201634689270515873,新横浜駅,9,
1410051014934,マーマしのはら保育園,港北区,〒222-0026 神奈川県横浜市港北区篠原町９７４−２５,35.5010425,139.6214015,"establishment,point_of_interest,school",045-439-0048,https://www.mama-hoikuen.com/,https://maps.google.com/?cid=16139365503080370619,新横浜駅,12,
1410051017093,アスク大倉山保育園,港北区,〒222-0037 神奈川県横浜市港北区大倉山４丁目１−１ BROTE大倉山 1F,35.51809009999999,139.6251737,"establishment,point_of_interest,school",045-549-5282,https://list.nihonhoiku.co.jp/nursery/detail/okurayama/?utm_source=google&utm_medium=map&utm_campaign=gbp,https://maps.google.com/?cid=3483781887039518142,大倉山駅,9,
1410051014900,ケンパ高田,港北区,〒223-0065 神奈川県横浜市港北区高田東４丁目１７−１７,35.5474166,139.6211202,"establishment,point_of_interest,school",045-540-0400,https://www.kenpa.jp/nursery/takadaen/,https://maps.google.com/?cid=16933957469385260884,綱島駅,25,
1410051017184,日吉みんなの保育園,港北区,〒223-0061 神奈川県横浜市港北区日吉２丁目９−６,35.5557124,139.6452724,"establishment,point_of_interest,school",045-561-6041,https://hiyoshiminna.web.fc2.com/,https://maps.google.com/?cid=17989800127432245015,日吉駅,5,
1410051017168,第二福澤保育センター,港北区,"第二福沢保育センター, 牛坂, 新横浜三丁目, 篠原町, 港北区, 横浜市, 神奈川県, 231-0017, 日本",35.505064,139.621259,"establishment,point_of_interest,school",045-434-1135,https://www.kuonen-kids.jp/sub2.html,https://maps.google.com/?cid=18131802762111623344,新横浜駅,8,
1410051014884,アスク日吉本町第二保育園,港北区,"アスク日吉本町第二保育園, 赤門坂, 日吉本町二丁目, 港北区, 横浜市, 神奈川県, 231-0017, 日本",35.551642,139.6359752,"establishment,point_of_interest,school",045-566-6445,https://list.nihonhoiku.co.jp/nursery/detail/hiyoshihoncho2/?utm_source=google&utm_medium=map&utm_campaign=gbp,https://maps.google.com/?cid=17930357459612784685,日吉駅,19,
1410051026730,木下の保育園日吉,港北区,〒223-0051 神奈川県横浜市港北区箕輪町３丁目１５−３８,35.5457811,139.6423552,"establishment,point_of_interest,school",045-548-4066,https://www.kinoshita-hoiku.com/facility/hiyoshi,https://maps.google.com/?cid=16548375992921782548,日吉駅,15,
1410051015683,にじいろ保育園綱島,港北区,〒222-0032 神奈川県横浜市港北区綱島西３丁目４−８,35.5370716,139.6293898,"establishment,point_of_interest,school",045-717-7241,https://www.like-kd.co.jp/establishment/nijiiro/HPtsunashima?utm_source=google&utm_medium=maps&utm_campaign=tsunashima,https://maps.google.com/?cid=14568712869729033118,綱島駅,7,
1410051025500,キッズパートナー綱島東,港北区,〒223-0052 神奈川県横浜市港北区綱島東４丁目６−３３,35.5412137,139.6437546,"establishment,point_of_interest,school",045-545-6230,https://www.care-partner.com/service/childcare/tunashimahigashi/,https://maps.google.com/?cid=10353559374098582326,新綱島駅,13,
1410051015212,大倉山保育園,港北区,〒222-0003 神奈川県横浜市港北区大曽根１丁目７−１ 横浜市立大倉山保育園 大倉山保育園,35.524644,139.6320119,"establishment,point_of_interest,school",045-542-5632,https://kyosaikai.jp/service/okurayama-hoiku/,https://maps.google.com/?cid=2534306337361255909,大倉山駅,7,
1410051025971,ぶれすと綱島ほいくえん,港北区,〒222-0001 神奈川県横浜市港北区樽町２丁目３−１ １F,35.5304121,139.6386907,"establishment,point_of_interest,school",045-947-2730,https://hoikuen.brest.co.jp/tsunashima/,https://maps.google.com/?cid=9047719715835942052,新綱島駅,14,
1410051025468,天才キッズクラブ楽学館大倉山園,港北区,〒222-0037 神奈川県横浜市港北区大倉山３丁目５５−３,35.5227424,139.6254348,"establishment,point_of_interest,school",045-642-5795,http://tensaikids.jp/,https://maps.google.com/?cid=5441802059257783827,大倉山駅,7,
1410051024016,コビープリスクールつなしま,港北区,〒223-0055 神奈川県横浜市港北区綱島上町91−１,35.5356878,139.6247134,"establishment,point_of_interest,school",045-633-8099,https://www.coby.jp/institute/tsunashima/,https://maps.google.com/?cid=17628665038648190957,綱島駅,14,
1410051023976,ブライト保育園横浜綱島,港北区,〒223-0058 神奈川県横浜市港北区新吉田東１丁目６−２６,35.54183,139.6231586,"establishment,point_of_interest,school",045-542-0190,https://www.saiseikai.net/brighttsunashima/,https://maps.google.com/?cid=12537984535841471345,綱島駅,20,
1410051017200,まめどくれっしゅ,港北区,〒222-0032 神奈川県横浜市港北区大豆戸町４０−３,35.5194603,139.634174,"establishment,point_of_interest,school",045-545-5002,https://www.doronko.jp/facilities/mamedokuresshu/?utm_source=GBP&utm_medium=click&utm_campaign=page_mamedokuresshu,https://maps.google.com/?cid=11146655340546214998,大倉山駅,7,
1410051023984,スターチャイルド≪新吉田ナーサリー≫,港北区,〒223-0058 神奈川県横浜市港北区新吉田東７丁目２８−１,35.5328338,139.6176562,"establishment,point_of_interest,school",045-544-0366,https://www.starchild.jp/nursery/shinyoshida/,https://maps.google.com/?cid=14717894369401166831,綱島駅,25,
1410051024255,ポピンズナーサリースクール綱島,港北区,〒223-0052 神奈川県横浜市港北区綱島東３丁目２−１５,35.5387454,139.6413635,"establishment,point_of_interest,school",045-859-9892,https://www.poppins.co.jp/educare/room-search/tsunashima/?utm_source=gmap&utm_medium=room&utm_campaign=202210,https://maps.google.com/?cid=15572382129809802685,新綱島駅,8,
1410051019040,横浜市太尾保育園,港北区,"横浜市太尾保育園, 太尾新道, 新横浜三丁目, 大倉山五丁目, 港北区, 横浜市, 神奈川県, 231-0017, 日本",35.520757,139.622453,"establishment,point_of_interest,school",045-542-0852,https://www.city.yokohama.lg.jp/kohoku/kosodate_kyoiku/hoiku/hoikujo/hutoohoikuen.html,https://maps.google.com/?cid=18270759436308641951,大倉山駅,12,
1410051024008,木下の保育園　綱島東,港北区,〒223-0052 神奈川県横浜市港北区綱島東４丁目５−３５,35.541757,139.6432698,"establishment,point_of_interest",045-543-6506,https://www.kinoshita-hoiku.com/facility/tsunashimahigashi,https://maps.google.com/?cid=8891763550229536035,新綱島駅,12,
1410051024198,グローバルキッズ菊名園,港北区,〒222-0011 神奈川県横浜市港北区菊名６丁目３−２０,35.5120875,139.6319338,"establishment,point_of_interest,school",045-421-3577,http://www.gkids.co.jp/facilities/nursery_011.html,https://maps.google.com/?cid=1071380562748966159,菊名駅,3,
1410051015675,グローバルキッズ日吉園,港北区,〒223-0061 神奈川県横浜市港北区日吉１丁目１０−２６,35.55645,139.6425261,"establishment,point_of_interest",045-562-0321,https://www.gkids.co.jp/facilities/nursery_028.html,https://maps.google.com/?cid=12593351626645322118,日吉駅,9,
1410051015667,グローバルキッズ綱島園,港北区,〒223-0052 神奈川県横浜市港北区綱島東４丁目１１−３８,35.5395148,139.6448203,"establishment,point_of_interest",045-545-1717,https://www.gkids.co.jp/facilities/nursery_039.html,https://maps.google.com/?cid=3332092958829053326,新綱島駅,12,
1410051017101,アスク日吉東保育園,港北区,〒223-0061 神奈川県横浜市港北区日吉７丁目２０−４４,35.5431376,139.6483612,"establishment,point_of_interest,school",045-566-2226,https://list.nihonhoiku.co.jp/nursery/detail/hiyoshihigashi/?utm_source=google&utm_medium=map&utm_campaign=gbp,https://maps.google.com/?cid=14563247226545749157,日吉駅,18,
1410051026680,ぶれすと綱島二階ほいくえん,港北区,〒222-0001 神奈川県横浜市港北区樽町２丁目３−１ ２F,35.5303442,139.638611,"establishment,point_of_interest,school",045-834-8766,https://hoikuen.brest.co.jp/tsunashima-nikai/,https://maps.google.com/?cid=13949536047226517933,新綱島駅,14,
1410051014298,マイ・ハート綱島東保育園,港北区,〒223-0052 神奈川県横浜市港北区綱島東３丁目４−３２,35.5381171,139.6425364,"establishment,point_of_interest,school",045-642-3700,https://my-heart.co.jp/%E3%83%9E%E3%82%A4%E3%83%BB%E3%83%8F%E3%83%BC%E3%83%88%E7%B6%B1%E5%B3%B6%E6%9D%B1%E4%BF%9D%E8%82%B2%E5%9C%92%E3%83%9B%E3%83%BC%E3%83%A0%E3%83%9A%E3%83%BC%E3%82%B8/,https://maps.google.com/?cid=7046410975007993086,新綱島駅,9,
1410052004264,尚花ぞうさん保育室,港北区,〒223-0053 神奈川県横浜市港北区綱島西２丁目１５−１４,35.5353078,139.6296886,"establishment,point_of_interest,school",045-717-7471,http://www.shoka-aijien.or.jp/publics/index/43/,https://maps.google.com/?cid=4810306996863588962,綱島駅,8,
1410051023760,テンダーラビング保育園綱島東,港北区,〒223-0052 神奈川県横浜市港北区綱島東４丁目１０−３４,35.541573,139.646345,"establishment,point_of_interest,school",045-633-7258,https://tlcs-ns.jp/facility/tsunashima/,https://maps.google.com/?cid=1456853169132052564,新綱島駅,16,
1410051025641,キディ大倉山・横浜,港北区,〒222-0032 神奈川県横浜市港北区大豆戸町３５−１,35.5191771,139.6339165,"establishment,point_of_interest,school",045-717-7122,https://www.shinkoufukushikai.com/hoiku/ninka/kiddy-okurayama,https://maps.google.com/?cid=8266549736306309443,大倉山駅,7,
1410051015634,くっくおさんぽ保育園,港北区,〒223-0061 神奈川県横浜市港北区日吉６丁目１−７,35.545629,139.652044,"establishment,point_of_interest,school",045-566-6777,http://kukkuosanpo.com/,https://maps.google.com/?cid=12616409125295739202,日吉駅,21,
1410051014959,たかた保育園,港北区,〒223-0066 神奈川県横浜市港北区高田西４丁目３５−１８ 横浜市立高田保育園,35.554939,139.615514,"establishment,point_of_interest,school",045-592-3251,http://www.takata-hoikuen.jp/,https://maps.google.com/?cid=9396006329328699631,内山モータース,10,
1410051024842,まなびの森　綱島こども園,港北区,〒223-0052 神奈川県横浜市港北区綱島西６丁目２３,35.5418784,139.6391757,"establishment,point_of_interest,school",045-547-6655,http://kodomonomori.co.jp/tu/,https://maps.google.com/?cid=15023933823284592167,綱島駅,10,
1410051027845,小学館アカデミーつなしま保育園,港北区,〒222-0001 神奈川県横浜市港北区樽町２丁目１３−２７,35.531361,139.633707,"establishment,point_of_interest,school",045-542-1521,https://hoiku.shopro.co.jp/hoiku/about/nursery/tsunashima.html,https://maps.google.com/?cid=17436087477363700836,新綱島駅,8,
1410051017275,たんぽぽ保育園,港北区,〒222-0037 神奈川県横浜市港北区大倉山２丁目１３−９,35.5248334,139.6247439,"establishment,point_of_interest,school",045-633-4141,http://tanpopo.kir.jp/,https://maps.google.com/?cid=570756107517769049,大倉山駅,9,
1410051024859,パレット保育園・大倉山,港北区,〒222-0001 神奈川県横浜市港北区樽町１丁目１３−３,35.5267364,139.6334103,"establishment,point_of_interest,school",045-859-9149,https://p-hoiku.com/info/72-2/%E5%90%84%E5%9C%92%E6%83%85%E5%A0%B1_%E5%A4%A7%E5%80%89%E5%B1%B1/,https://maps.google.com/?cid=16807357050388556052,大倉山駅,11,
1410051025997,ちいさなたね保育園,港北区,〒222-0002 神奈川県横浜市港北区師岡町８４６−１,35.5264148,139.6437729,"establishment,point_of_interest,school",045-515-0619,https://bi-no.org/small,https://maps.google.com/?cid=17682356721439793686,大倉山駅,22,
1410051015618,おおつな保育園,港北区,〒222-0003 神奈川県横浜市港北区大曽根２丁目３３−８,35.531368,139.630706,"establishment,point_of_interest,school",045-531-0501,https://www.shoutokukai.jp/facilities/otsuna,https://maps.google.com/?cid=8722668516260390322,新綱島駅,12,
1410051015741,森の樹保育園,港北区,〒222-0037 神奈川県横浜市港北区大倉山１丁目２２−５,35.5179402,139.6308366,"establishment,point_of_interest,school",045-533-0242,http://morinoki.yokohama/,https://maps.google.com/?cid=5099963441913273117,大倉山駅,8,
1410051026037,グローバルキッズ大倉山園,港北区,〒222-0037 神奈川県横浜市港北区大倉山３丁目５８−１３,35.523032,139.6250553,"establishment,point_of_interest,school",045-947-3320,https://www.gkids.co.jp/facilities/nursery_173.html,https://maps.google.com/?cid=1643019786278986154,大倉山駅,7,
1410051019636,うみのくに保育園きくな,港北区,〒222-0011 神奈川県横浜市港北区菊名７丁目５−３６,35.5161632,139.6301281,"establishment,point_of_interest,school",045-717-5120,https://soranohane.com/kikuna.html,https://maps.google.com/?cid=17124925421268640965,大倉山駅,9,
1410051023786,わかさと保育園,港北区,〒223-0053 神奈川県横浜市港北区綱島西６丁目３−１３,35.5447991,139.6360963,"establishment,point_of_interest,school",045-546-0551,https://wakasato.site/nursery/wakasato/,https://maps.google.com/?cid=13152203050672310936,綱島駅,15,
1410052003431,小規模保育事業ＭＩＲＡｉｏ新横浜,港北区,〒222-0033 神奈川県横浜市港北区新横浜３丁目１２−４,35.5130592,139.6212316,"establishment,point_of_interest",045-475-1139,http://www.miraio.net/,https://maps.google.com/?cid=9621238787516215413,新横浜駅,10,
1410051025427,ウッズ保育園,港北区,〒223-0053 神奈川県横浜市港北区綱島西２丁目１−７,35.53499890000001,139.6336116,"establishment,point_of_interest,school",045-547-6151,https://hoikushitsu-woods.com/,https://maps.google.com/?cid=15450413479737193608,綱島駅,3,
1410051014280,太陽の子　日吉保育園,港北区,〒223-0061 神奈川県横浜市港北区日吉１丁目２１−５５,35.5571046,139.6408853,"establishment,point_of_interest,school",045-566-6345,https://www.kidslife-nursery.com/facility/kanagawa/yokohama/hiyoshi/,https://maps.google.com/?cid=14211296540894755126,日吉駅,12,
1410051024024,ブライト保育園横浜日吉,港北区,〒223-0061 神奈川県横浜市港北区日吉５丁目２１−１,35.5459392,139.6548249,"establishment,point_of_interest,school",045-565-0190,https://saiseikai.net/brighthiyoshi/,https://maps.google.com/?cid=11298168629927634541,日吉駅,24,
1410051024578,みらいく高田園,港北区,〒223-0066 神奈川県横浜市港北区高田西４丁目２６−７,35.5530385,139.6139442,"establishment,point_of_interest,school",045-620-4511,https://www.miraiku-h.co.jp/nursery/takata/?utm_source=google&utm_medium=maps,https://maps.google.com/?cid=6352920311730408135,内山モータース,8,
1410051014942,めぐみ保育園,港北区,"めぐみ保育園, 宮内新横浜線, 新吉田東三丁目, 港北区, 横浜市, 神奈川県, 231-0017, 日本",35.5438125,139.6161362,"establishment,point_of_interest,school",045-590-0590,https://megumi.hazawa.jp/,https://maps.google.com/?cid=4874087399444974162,綱島駅,30,
1410051017176,なあな保育園,港北区,"なあな保育園, 川崎町田線, 樽町三丁目, 港北区, 横浜市, 神奈川県, 231-0017, 日本",35.5302772,139.6427444,"establishment,point_of_interest,school",045-543-0327,http://www.tokyolm.co.jp/nana_ns/,https://maps.google.com/?cid=7993301234135201934,新綱島駅,19,
1410051019669,パレット保育園・大豆戸,港北区,〒222-0032 神奈川県横浜市港北区大豆戸町５５２−１,35.5139927,139.6247582,"establishment,point_of_interest,school",045-438-3149,https://p-hoiku.com/info/72-2/%E5%90%84%E5%9C%92%E6%83%85%E5%A0%B1_%E5%A4%A7%E8%B1%86%E6%88%B8/,https://maps.google.com/?cid=1343885640577516768,新横浜駅,13,
1410051025807,港北コスモス保育園,港北区,〒223-0058 神奈川県横浜市港北区新吉田東５丁目７８−２４,35.5400431,139.6150083,"establishment,point_of_interest,school",045-716-8297,https://cosmosfukushikai.com/,https://maps.google.com/?cid=1189381388484374751,綱島駅,29,
1410051026243,認定こども園岸根こども園（保育所部分）,港北区,〒222-0034 神奈川県横浜市港北区岸根町６８５−１２ 山百合会岸根保育園,35.496435,139.610522,"establishment,point_of_interest,school",045-491-1555,https://yamayuri-kai.jp/nursery_school_info/kishine/,https://maps.google.com/?cid=413454699164172053,新横浜駅,22,
1410051017218,森のエルマー保育園,港北区,〒223-0058 神奈川県横浜市港北区新吉田東３丁目６−３３,35.546112,139.617564,"establishment,point_of_interest,school",045-546-6202,http://elmer-kids.com/,https://maps.google.com/?cid=3419398851282077971,綱島駅,29,
1410051024602,はなまる保育園,港北区,〒223-0052 神奈川県横浜市港北区綱島東１丁目１３−２ ＭＫマンション第三,35.536421,139.637547,"establishment,point_of_interest,school",045-547-0555,https://www.hanamaru-hoikuen.com/,https://maps.google.com/?cid=2497086856897410352,新綱島駅,1,
1410051018638,まなびの森　日吉こども園,港北区,〒223-0061 神奈川県横浜市港北区日吉５丁目１１−２４ ルミエール日吉,35.546318,139.652886,"establishment,point_of_interest,school",045-563-7873,http://kodomonomori.co.jp/hy/,https://maps.google.com/?cid=10716041277156353854,日吉駅,21,
1410051015725,聖保育園,港北区,"聖保育園, 大倉山エルム通り, 大倉山三丁目, 港北区, 横浜市, 神奈川県, 231-0017, 日本",35.5222993,139.6271223,"establishment,point_of_interest,school",045-543-3695,https://hijirihoikuen-daini.com/recruit/,https://maps.google.com/?cid=16936467607285187933,大倉山駅,4,
1410052005030,聖愛クロス保育園　きくな,港北区,〒222-0032 神奈川県横浜市港北区大豆戸町２５７,35.5123782,139.6300896,"establishment,point_of_interest,school",045-438-3162,https://www.occ.ed.jp/kikuna/,https://maps.google.com/?cid=938308904996929950,菊名駅,4,
1410051018265,ペガサスベビー保育園,港北区,"ペガサスベビー保育園, 環状2号線, 新横浜三丁目, 新横浜一丁目, 港北区, 横浜市, 神奈川県, 231-0017, 日本",35.505686,139.612475,"establishment,point_of_interest,school",045-475-1376,http://www.yamayuri-kai.jp/babyindex.html,https://maps.google.com/?cid=5335396108723521378,新横浜駅,7,
1410051024487,みらいく日吉本町園,港北区,〒223-0062 神奈川県横浜市港北区日吉本町４丁目１７−４６ １Ｆ,35.5466272,139.6313044,"establishment,point_of_interest,school",045-565-9011,https://www.miraiku-h.co.jp/nursery/hiyoshihonmachi/?utm_source=google&utm_medium=maps,https://maps.google.com/?cid=8039750117215476436,綱島駅,21,
1410051025591,スターチャイルド≪大倉山ナーサリー≫,港北区,〒222-0002 神奈川県横浜市港北区師岡町１１８４−１,35.5228629,139.6346658,"establishment,point_of_interest,school",045-540-7050,https://www.starchild.jp/nursery/okurayama/,https://maps.google.com/?cid=3372365880946549054,大倉山駅,9,
1410051026029,ララランド大倉山,港北区,〒222-0037 神奈川県横浜市港北区大倉山１丁目１０−１２ ステラマリス,35.52184700000001,139.6317286,"establishment,point_of_interest,school",045-642-7623,https://la-la-land.co.jp/school-okurayama/,https://maps.google.com/?cid=9161134281224686002,大倉山駅,3,
1410051015592,大倉山元気の泉保育園,港北区,〒222-0001 神奈川県横浜市港北区樽町１丁目１４−２０,35.5272079,139.6353107,"establishment,point_of_interest,school",045-532-0076,https://genkinoizumi.ed.jp/okurayama/,https://maps.google.com/?cid=17703017322259509272,大倉山駅,14,
1410051017226,わおわお大倉山保育園,港北区,〒222-0037 神奈川県横浜市港北区大倉山５丁目７−２ ダイアパレスグランデージ大倉山弐番館 1F,35.5239804,139.6241263,"establishment,point_of_interest,school",045-549-6380,http://www.waowao.or.jp/,https://maps.google.com/?cid=550291535958121652,大倉山駅,9,
1410052005733,もしもしのほし日吉保育園,港北区,〒223-0061 神奈川県横浜市港北区日吉２丁目３−８ 日吉ビル 1F 柏屋,35.5545036,139.6464646,"establishment,point_of_interest,school",045-577-0914,https://mocmo.ed.jp/,https://maps.google.com/?cid=15568994210773340363,日吉駅,2,
1410051027043,グローバルキッズ日吉五丁目園,港北区,"日吉五丁目公園, 21, 日吉, 港北区, 横浜市, 神奈川県, 223-0061, 日本",35.5511185,139.6557759,"establishment,point_of_interest,school",045-620-5660,https://www.gkids.co.jp/facilities/nursery_177.html,https://maps.google.com/?cid=11464359558335328423,日吉駅,19,
1410051024388,聖保育園第二,港北区,〒222-0037 神奈川県横浜市港北区大倉山１丁目１１−８,35.521349,139.631136,"establishment,point_of_interest,school",045-542-7375,https://hijirihoikuen-daini.com/recruit/,https://maps.google.com/?cid=5136799195183961680,大倉山駅,2,
1410051026789,キッズラディ,港北区,〒222-0032 神奈川県横浜市港北区大豆戸町６３９−２,35.5126262,139.6226284,"establishment,point_of_interest,school",045-439-5025,http://www.kyokushin-mm.jp/50index,https://maps.google.com/?cid=7868327560286207600,新横浜駅,9,
1410051027159,トゥインクルキッズ高田保育園,港北区,〒223-0065 神奈川県横浜市港北区高田東３丁目１−１１ Ｆｉｏｒｉｔｕｒａ １Ｆ,35.5501204,139.6200377,"establishment,point_of_interest,school",045-947-4106,https://twinkle-kids.space/,https://maps.google.com/?cid=795560805079571057,綱島駅,30,
1410051025989,みらいく矢上園,港北区,〒223-0061 神奈川県横浜市港北区日吉５丁目１３−４ ＬＯＣ’Ｓ ＨＩＹＯＳＨＩ ２Ｆ,35.548424,139.6534647,"establishment,point_of_interest,school",045-534-3845,https://www.miraiku-h.co.jp/nursery/yagami/?utm_source=google&utm_medium=maps,https://maps.google.com/?cid=16971089843171387925,日吉駅,23,
1410052003233,キッズパートナー日吉,港北区,〒223-0051 神奈川県横浜市港北区箕輪町１丁目１−１８,35.5510388,139.6473211,"establishment,point_of_interest,school",045-560-2300,https://www.care-partner.com/place/hiyoshi/,https://maps.google.com/?cid=5687296003531978005,日吉駅,4,
1410052005253,きゅーぴーるーむ大倉山園,港北区,〒222-0037 神奈川県横浜市港北区大倉山３丁目５８−１３,35.5230426,139.6250868,"establishment,point_of_interest,school",045-834-9590,https://qproom.jp/okurayamaen/,https://maps.google.com/?cid=17543866842089821739,大倉山駅,7,
1410052003043,ピッコロ・グランデ新横浜,港北区,〒222-0033 神奈川県横浜市港北区新横浜１丁目,35.5024113,139.610667,"establishment,point_of_interest",045-472-1188,https://www.senrikai.jp/piccolo/,https://maps.google.com/?cid=12355768764629261145,新横浜駅,12,
1410052005691,みらいこうほく保育園,港北区,〒223-0062 神奈川県横浜市港北区日吉本町５丁目６７−１１−１,35.5482486,139.6286965,"establishment,point_of_interest,school",,https://www.miraikai.ed.jp/guide/2590.html,https://maps.google.com/?cid=10830675973696907887,綱島駅,25,
1410051015642,くっくおさんぽ保育園大倉山,港北区,〒222-0037 神奈川県横浜市港北区大倉山５丁目３９−２３,35.5257606,139.6228591,"establishment,point_of_interest,school",045-542-7236,https://cgi.city.yokohama.lg.jp/kodomo/hoiku-shisetu/hdata/n0374.html,https://maps.google.com/?cid=6083307767882800543,大倉山駅,14,
1410052005931,イルカ保育園,港北区,"イルカ保育園, サンロード, 日吉二丁目, 日吉, 港北区, 横浜市, 神奈川県, 223-0061, 日本",35.5546581,139.6466423,"establishment,point_of_interest,school",045-561-6702,,https://maps.google.com/?cid=10515094959519062208,日吉駅,2,
1410052004371,くじら保育園,港北区,〒223-0064 神奈川県横浜市港北区下田町５丁目２９−２３ 下田ビル,35.557977,139.62694,"establishment,point_of_interest,school",045-562-6718,https://www.kjrnoko.com/,https://maps.google.com/?cid=9638381845036295254,日吉駅,28,
1410052004868,グローバルキッズ綱島ＳＳＴ保育園,港北区,〒223-0052 神奈川県横浜市港北区綱島東４丁目３−４２,35.5412298,139.6418852,"establishment,point_of_interest,school",045-642-7301,https://www.gkids.co.jp/facilities/nursery_123.html,https://maps.google.com/?cid=2779275228422338704,新綱島駅,11,
1410051027126,日吉ちとせ保育園,港北区,〒223-0061 神奈川県横浜市港北区日吉２丁目１０−２３,35.55592,139.6453238,"establishment,point_of_interest,school",045-565-1230,https://www.chitosek.or.jp/preschools/hiyoshi,https://maps.google.com/?cid=16522461060142079424,日吉駅,5,
1410052005188,フェアリーテイルそら,港北区,〒222-0033 神奈川県横浜市港北区新横浜３丁目２３−３ 1階,35.5134997,139.6191898,"establishment,point_of_interest",045-474-2504,https://o-planet.jp/hoiku/,https://maps.google.com/?cid=10804271623775286654,新横浜駅,9,
1410052005469,キッズラボ菊名園,港北区,"キッズラボ菊名園, 東京丸子横浜線, 菊名六丁目, 港北区, 横浜市, 神奈川県, 231-0017, 日本",35.51336,139.63197,"establishment,point_of_interest,school",045-717-5455,https://kids-lab.co.jp/kikunaen/?utm_source=google&utm_medium=maps,https://maps.google.com/?cid=11303499125502899427,菊名駅,5,
1410051027910,にじいろ保育園綱島東,港北区,〒223-0051 神奈川県横浜市港北区綱島東１丁目１１−２ マンション桐本 1F・2F,35.5349222,139.6358712,"establishment,point_of_interest,school",045-633-4851,https://www.like-kd.co.jp/establishment/nijiiro/HPtsunashimahigashi?utm_source=google&utm_medium=maps&utm_campaign=tsunashimahigashi,https://maps.google.com/?cid=6356616589048991833,新綱島駅,1,
1410052004355,ベイキッズ星の森保育園,港北区,日本、〒222-0023 神奈川県横浜市港北区仲手原２丁目２０−１９,35.4962100,139.6314500,"establishment,point_of_interest,school",045-530-0777,https://www.bay-kids.com/aozora.html,https://maps.google.com/?cid=3287192786423838371,妙蓮寺駅,5,
1410052005683,ばばほいくしつ綱島,港北区,〒223-0053 神奈川県横浜市港北区綱島西３丁目５−１６ 武市ビル,35.5377521,139.6296987,"establishment,point_of_interest,school",045-297-6290,https://fazer-bon.org/,https://maps.google.com/?cid=471450671807163214,綱島駅,7,
1410051014264,菊名愛児園,港北区,"菊名愛児園, 東京丸子横浜線, 菊名四丁目, 港北区, 横浜市, 神奈川県, 231-0017, 日本",35.509703,139.635868,"establishment,point_of_interest,school",045-401-0431,https://kikuna.jpn.org/aijien/index.html,https://maps.google.com/?cid=18335881285699283840,菊名駅,5,
1410052005824,preschool ALICE Clover,港北区,〒223-0052 神奈川県横浜市港北区綱島東３丁目５−５０ コリエンテ綱島 1階,35.5390966,139.6429034,"establishment,point_of_interest,school",,,https://maps.google.com/?cid=9009461528283125987,新綱島駅,10,
1410052002912,港北こども園,港北区,〒222-0032 神奈川県横浜市港北区大豆戸町３６５−１,35.5160105,139.6260094,"establishment,point_of_interest,school",045-547-6335,http://www.cibi.net/kodomoen/,https://maps.google.com/?cid=7473546741165787599,大倉山駅,12,
1410051015659,グローバルキッズ下田町園,港北区,〒223-0064 神奈川県横浜市港北区下田町３丁目１６−２５ Ｌｕ－ｃｈｅ 1F,35.5590836,139.6300581,"establishment,point_of_interest,school",045-561-2555,http://www.gkids.co.jp/facilities/nursery_038.html,https://maps.google.com/?cid=8985316276667287350,日吉駅,26,
1410052002714,キッズパートナー大倉山,港北区,〒222-0032 神奈川県横浜市港北区大豆戸町１１３−１,35.5180374,139.632356,"establishment,point_of_interest,school",045-531-0220,https://www.care-partner.com/place/okurayama/,https://maps.google.com/?cid=187239396714211216,大倉山駅,9,
1410052006038,リトルスカラー綱島保育園,港北区,〒223-0053 神奈川県横浜市港北区綱島西１丁目２−７ 細野ビル,35.537656,139.635307,"establishment,point_of_interest,school",045-642-3361,http://www.little-scholar.com/,https://maps.google.com/?cid=16139488438435842941,綱島駅,1,
1410051025856,大曽根コスモス保育園,港北区,〒222-0003 神奈川県横浜市港北区大曽根２丁目３２−８,35.5317312,139.6307444,"establishment,point_of_interest,school",045-633-8605,https://cosmosfukushikai.com/,https://maps.google.com/?cid=9555396974245904302,新綱島駅,12,
1410051019032,横浜市菊名保育園,港北区,〒222-0011 神奈川県横浜市港北区菊名３丁目１０−２０,35.505776,139.638022,"establishment,point_of_interest,school",045-433-1259,http://www.city.yokohama.lg.jp/kohoku/hoikuen/kikuna/,https://maps.google.com/?cid=11608031498556947128,菊名駅,10,
1410051023877,みのわのぞみ保育園,港北区,〒223-0051 神奈川県横浜市港北区箕輪町３丁目７−２ 横浜市立箕輪保育園,35.548148,139.643378,"establishment,point_of_interest,school",045-562-1210,https://shkb.org/minowanozomi/,https://maps.google.com/?cid=787871662530263547,日吉駅,13,
1410052004686,キッズパートナー綱島,港北区,〒223-0053 神奈川県横浜市港北区綱島西３丁目６−１９,35.538206,139.630185,"establishment,point_of_interest,school",045-547-0076,https://www.care-partner.com/place/tsunashima/,https://maps.google.com/?cid=16447723174820603893,綱島駅,7,
1410051024248,下田みんなの保育園,港北区,〒223-0064 神奈川県横浜市港北区下田町１丁目３−４１,35.5581632,139.6364174,"establishment,point_of_interest,school",045-595-9522,https://shimodaminna.web.fc2.com/,https://maps.google.com/?cid=6402447506601554406,日吉駅,18,
1410052002771,スターチス日吉保育園,港北区,〒223-0062 神奈川県横浜市港北区日吉本町１丁目２３−１２ ライオンズマンション日吉台 1F,35.5527725,139.6459389,"establishment,point_of_interest,school",045-562-8108,http://www.statice-ns.or.jp/hiyoshi-2,https://maps.google.com/?cid=5773355168198538002,日吉駅,2,
1410052004074,日吉チューリップルーム,港北区,〒223-0051 神奈川県横浜市港北区箕輪町１丁目１６−１８ グリーン・ヴュー小嶋 １０１号室,35.5499024,139.6468471,"establishment,point_of_interest,school",045-620-0477,http://tuliproom.info/hiyoshi/,https://maps.google.com/?cid=4092775845370431209,日吉駅,8,
1410051019016,横浜市大曽根保育園,港北区,"横浜市大曽根保育園, 東京丸子横浜線, 大曽根一丁目, 港北区, 横浜市, 神奈川県, 231-0017, 日本",35.527395,139.630591,"establishment,point_of_interest,school",045-531-0034,https://www.city.yokohama.lg.jp/kohoku/kurashi/kosodate_kyoiku/hoiku/hoikujo/osone.html,https://maps.google.com/?cid=8333443589952290506,大倉山駅,11,
1410051027233,保育室プリンプリンROOM,港北区,〒223-0053 神奈川県横浜市港北区綱島西３丁目９−１２ プリンプリンルーム,35.5381209,139.6289118,"establishment,point_of_interest,school",045-540-0122,https://purinpurin-room.com/,https://maps.google.com/?cid=17353261237302720674,綱島駅,8,
1410051018281,リトルスカラー妙蓮寺保育園,港北区,〒222-0011 神奈川県横浜市港北区菊名１丁目１７−８,35.5032705,139.6344101,"establishment,point_of_interest,school",045-401-9002,http://ls-myorenji.com/,https://maps.google.com/?cid=12583676764916157381,妙蓮寺駅,9,
1410051027530,キッズフォレ綱島,港北区,〒223-0053 神奈川県横浜市港北区綱島西１丁目２１−５,35.53909489999999,139.6344917,"establishment,point_of_interest,school",,,https://maps.google.com/?cid=12665269022854697914,綱島駅,4,
1410052004025,佐藤保育室,港北区,〒223-0061 神奈川県横浜市港北区日吉６丁目１−２０,35.5461134,139.6523815,"doctor,establishment,health,point_of_interest",045-564-3717,http://sato-kodomo.com/,https://maps.google.com/?cid=13785896471661336353,日吉駅,21,
1410051027928,にじいろ保育園箕輪町,港北区,〒223-0051 神奈川県横浜市港北区箕輪町２丁目５−８,35.5439716,139.6423771,"establishment,point_of_interest,school",045-548-3961,https://www.like-kd.co.jp/establishment/nijiiro/HPminowacho?utm_source=google&utm_medium=maps&utm_campaign=minowacho,https://maps.google.com/?cid=9454293232621175953,新綱島駅,14,
1410051028249,ミアヘルサ保育園ひびき綱島,港北区,〒223-0052 神奈川県横浜市港北区綱島東３丁目５−５,35.5400644,139.642183,"establishment,point_of_interest,school",045-834-7092,https://dev-merhalsa.jp/hoikuen/nursery/tsunashima/,https://maps.google.com/?cid=6003385974520715478,新綱島駅,10,
1410051028231,スターチャイルド≪日吉本町駅前ナーサリー≫,港北区,〒223-0062 神奈川県横浜市港北区日吉本町６丁目２−２ 14号,35.5524733,139.6329079,"establishment,point_of_interest,school",045-534-7422,,https://maps.google.com/?cid=6369396540485565289,日吉駅,23,
1410052003423,Ｌｕｃｅ陽だまりの家保育園綱島,港北区,〒223-0052 神奈川県横浜市港北区綱島東４丁目９−２８,35.5416772,139.6452699,"establishment,point_of_interest,school",045-718-6466,http://www.luce.or.jp/,https://maps.google.com/?cid=10951039812934456507,新綱島駅,16,
1410052003514,Ｌｕｃｅ陽だまりの家保育園,港北区,〒222-0012 神奈川県横浜市港北区富士塚２丁目２８−１６ テルージュキクナⅠ 102,35.5047978,139.628973,"establishment,point_of_interest,school",045-716-8580,http://www.luce.or.jp/,https://maps.google.com/?cid=14239222921568764633,菊名駅,10,
1410051027944,スターチャイルド《日吉本町ナーサリー》,港北区,〒223-0062 神奈川県横浜市港北区日吉本町６丁目２−２ 14号,35.5524733,139.6329079,"establishment,point_of_interest,school",045-534-7422,,https://maps.google.com/?cid=6369396540485565289,日吉駅,23,
1410051027548,こどものまち綱島西保育園,港北区,〒223-0053 神奈川県横浜市港北区綱島西３丁目２１−２６,35.539372,139.628842,"establishment,point_of_interest,school",045-834-7250,https://www.kodomonomachi-group.jp/tsunashimanishihoikuen,https://maps.google.com/?cid=1742186145106649400,綱島駅,9,
1410051027589,日吉箕輪えほんの森保育園,港北区,〒223-0051 神奈川県横浜市港北区箕輪町２丁目１３−１５,35.5432017,139.6457352,"establishment,point_of_interest,school",,https://www.miraikeikaku.jp/miraien/hiyoshi-minowa/,https://maps.google.com/?cid=13106646131675833931,新綱島駅,16,
1410051027605,大倉山きずな保育園,港北区,〒222-0037 神奈川県横浜市港北区大倉山３丁目４−３１ ２階・3階,35.5210832,139.6288519,"establishment,point_of_interest,school",045-547-0302,https://ookurayama-kizuna.com/,https://maps.google.com/?cid=12931110844109300739,大倉山駅,3,
1410051018273,ペガサス夜間保育園,港北区,〒222-0033 神奈川県横浜市港北区新横浜３丁目２４−１４,35.51403639999999,139.620453,"establishment,point_of_interest,school",045-476-0769,https://yamayuri-kai.jp/nursery_school_info/pegasus-night/,https://maps.google.com/?cid=14520953165118299276,新横浜駅,9,
1410052005261,ルリ保育園日吉,港北区,〒223-0051 神奈川県横浜市港北区箕輪町２丁目３−７ 日吉ロイヤルマンション,35.545727,139.643256,"establishment,point_of_interest,school",045-534-8311,https://kosodate-web.com/ruly/,https://maps.google.com/?cid=2538037226375465019,日吉駅,13,
1410051027225,つばき駅前保育園,港北区,〒222-0037 神奈川県横浜市港北区大倉山１丁目４−５,35.5228677,139.630044,"establishment,point_of_interest,school",045-543-6700,https://www.tsubaki-hoikuen.jp/,https://maps.google.com/?cid=2462922250537221583,大倉山駅,2,
1410052005725,保育室テックテックROOM,港北区,〒223-0054 神奈川県横浜市港北区綱島台１４−１３,35.5400467,139.6286304,"establishment,point_of_interest,school",045-716-8809,https://tectec-room.com/,https://maps.google.com/?cid=15110181192676114955,綱島駅,10,
1410051019628,くっくおさんぽ保育園ふとお,港北区,〒222-0037 神奈川県横浜市港北区大倉山７丁目４０−２,35.5187186,139.620245,"establishment,point_of_interest,school",045-533-3375,https://cgi.city.yokohama.lg.jp/kodomo/hoiku-shisetu/hdata/n0677.html,https://maps.google.com/?cid=6640735856784631484,大倉山駅,15,
1410052004470,ジャンプ保育園,港北区,〒223-0062 神奈川県横浜市港北区日吉本町３丁目３３−１６,35.5499776,139.636318,"establishment,point_of_interest,school",045-620-5252,,https://maps.google.com/?cid=11822015072737435256,日吉駅,20,
1410052004058,ローズ保育園,港北区,〒223-0066 神奈川県横浜市港北区高田西２丁目２１−１１,35.55205309999999,139.6159944,"establishment,point_of_interest,school",,,https://maps.google.com/?cid=3381843509597255552,（株）ネクスコ東日本 リテイル都筑店,10,
1410052004389,天才キッズクラブ楽遊館綱島園,港北区,〒223-0052 神奈川県横浜市港北区綱島東１丁目１２,35.5350153,139.6375212,"establishment,point_of_interest,school",045-642-8815,http://tensaikids.jp/,https://maps.google.com/?cid=12036646804840441836,新綱島駅,2,
1410051021780,認定こども園高木学園附属幼稚園（保育所部分）,港北区,〒222-0011 神奈川県横浜市港北区菊名７丁目３−３０,35.515252,139.630236,"establishment,point_of_interest,school",045-431-8180,https://takagi-kids.ed.jp/,https://maps.google.com/?cid=3162899301288832624,菊名駅,9,
1410051015626,おおつな森の保育園,港北区,〒223-0057 神奈川県横浜市港北区新羽町１０２０−１,35.5196718,139.6075014,"establishment,point_of_interest,school",045-545-0620,https://www.shoutokukai.jp/facilities/otsunam,https://maps.google.com/?cid=1695800871240131102,新横浜駅,25,
1410052006111,新横浜めぶき保育園,港北区,〒222-0026 神奈川県横浜市港北区篠原町２５８９ 1FKコート新横浜 102,35.5077744,139.6216169,"establishment,point_of_interest,school",,,https://maps.google.com/?cid=13724679674608120658,新横浜駅,7,
1410051026854,認定こども園新羽幼稚園（保育所部分）,港北区,〒223-0057 神奈川県横浜市港北区新羽町２８７６,35.5257677,139.6034941,"establishment,point_of_interest,school",045-531-2348,https://nippa.byodo.ac.jp/,https://maps.google.com/?cid=4051805106042979612,小机駅,38,
1410051027316,認定こども園しのはら幼稚園（保育所部分）,港北区,〒222-0026 神奈川県横浜市港北区篠原町１１６３,35.4988133,139.6175872,"establishment,point_of_interest,school",045-432-6506,http://www.shinohara.ed.jp/,https://maps.google.com/?cid=7485306688782583871,新横浜駅,13,
